[
  {
    "OBJECT_NAME": "STARLINK-31143",
    "OBJECT_ID": "24011F",
    "EPOCH": "2025-11-11T02:10:19.055712",
    "MEAN_MOTION": 15.30194353,
    "ECCENTRICITY": 0.000149,
    "INCLINATION": 53.1604,
    "RA_OF_ASC_NODE": 204.4572,
    "ARG_OF_PERICENTER": 117.5775,
    "MEAN_ANOMALY": 242.5377,
    "EPHEMERIS_TYPE": 0,
    "CLASSIFICATION_TYPE": "U",
    "NORAD_CAT_ID": 58770,
    "ELEMENT_SET_NO": 999,
    "REV_AT_EPOCH": 10211,
    "BSTAR": 4.324e-05,
    "MEAN_MOTION_DOT": 9.21e-06,
    "MEAN_MOTION_DDOT": 0.0,
    "TLE_LINE1": "1 58770U 24011F   25315.09049833  .00000921  00000+0  43240-4 0  9995",
    "TLE_LINE2": "2 58770  53.1604 204.4572 0001490 117.5775 242.5377 15.30194353102118",
    "COMMENT": "Grouped by shell and plane from TLE"
  },
  {
    "OBJECT_NAME": "STARLINK-31135",
    "OBJECT_ID": "24011G",
    "EPOCH": "2025-11-11T02:26:17.561760",
    "MEAN_MOTION": 15.30161705,
    "ECCENTRICITY": 0.0001608,
    "INCLINATION": 53.1609,
    "RA_OF_ASC_NODE": 202.414,
    "ARG_OF_PERICENTER": 90.0695,
    "MEAN_ANOMALY": 270.049,
    "EPHEMERIS_TYPE": 0,
    "CLASSIFICATION_TYPE": "U",
    "NORAD_CAT_ID": 58771,
    "ELEMENT_SET_NO": 999,
    "REV_AT_EPOCH": 10214,
    "BSTAR": 0.00038444,
    "MEAN_MOTION_DOT": 0.0001103,
    "MEAN_MOTION_DDOT": 0.0,
    "TLE_LINE1": "1 58771U 24011G   25315.10159215  .00011030  00000+0  38444-3 0  9996",
    "TLE_LINE2": "2 58771  53.1609 202.4140 0001608  90.0695 270.0490 15.30161705102140",
    "COMMENT": "Grouped by shell and plane from TLE"
  },
  {
    "OBJECT_NAME": "STARLINK-31136",
    "OBJECT_ID": "24011H",
    "EPOCH": "2025-11-11T02:24:00.228096",
    "MEAN_MOTION": 15.30195652,
    "ECCENTRICITY": 0.0001468,
    "INCLINATION": 53.1593,
    "RA_OF_ASC_NODE": 204.5153,
    "ARG_OF_PERICENTER": 56.4087,
    "MEAN_ANOMALY": 303.7054,
    "EPHEMERIS_TYPE": 0,
    "CLASSIFICATION_TYPE": "U",
    "NORAD_CAT_ID": 58772,
    "ELEMENT_SET_NO": 999,
    "REV_AT_EPOCH": 10210,
    "BSTAR": 0.00010627000000000001,
    "MEAN_MOTION_DOT": 2.789e-05,
    "MEAN_MOTION_DDOT": 0.0,
    "TLE_LINE1": "1 58772U 24011H   25315.10000264  .00002789  00000+0  10627-3 0  9990",
    "TLE_LINE2": "2 58772  53.1593 204.5153 0001468  56.4087 303.7054 15.30195652102109",
    "COMMENT": "Grouped by shell and plane from TLE"
  },
  {
    "OBJECT_NAME": "STARLINK-31073",
    "OBJECT_ID": "24011J",
    "EPOCH": "2025-11-11T02:33:09.829728",
    "MEAN_MOTION": 15.30091073,
    "ECCENTRICITY": 0.0002595,
    "INCLINATION": 53.1605,
    "RA_OF_ASC_NODE": 204.5535,
    "ARG_OF_PERICENTER": 95.3323,
    "MEAN_ANOMALY": 264.7974,
    "EPHEMERIS_TYPE": 0,
    "CLASSIFICATION_TYPE": "U",
    "NORAD_CAT_ID": 58773,
    "ELEMENT_SET_NO": 999,
    "REV_AT_EPOCH": 10211,
    "BSTAR": 0.00095417,
    "MEAN_MOTION_DOT": 0.00027913,
    "MEAN_MOTION_DDOT": 0.0,
    "TLE_LINE1": "1 58773U 24011J   25315.10636377  .00027913  00000+0  95417-3 0  9997",
    "TLE_LINE2": "2 58773  53.1605 204.5535 0002595  95.3323 264.7974 15.30091073102115",
    "COMMENT": "Grouped by shell and plane from TLE"
  },
  {
    "OBJECT_NAME": "STARLINK-31122",
    "OBJECT_ID": "24011K",
    "EPOCH": "2025-11-11T02:42:14.345856",
    "MEAN_MOTION": 15.30181858,
    "ECCENTRICITY": 9.96e-05,
    "INCLINATION": 53.1603,
    "RA_OF_ASC_NODE": 204.5918,
    "ARG_OF_PERICENTER": 43.9359,
    "MEAN_ANOMALY": 316.172,
    "EPHEMERIS_TYPE": 0,
    "CLASSIFICATION_TYPE": "U",
    "NORAD_CAT_ID": 58774,
    "ELEMENT_SET_NO": 999,
    "REV_AT_EPOCH": 10211,
    "BSTAR": 0.0,
    "MEAN_MOTION_DOT": -1.031e-05,
    "MEAN_MOTION_DDOT": 0.0,
    "TLE_LINE1": "1 58774U 24011K   25315.11266604 -.00001031  00000+0 -22702-4 0  9994",
    "TLE_LINE2": "2 58774  53.1603 204.5918 0000996  43.9359 316.1720 15.30181858102112",
    "COMMENT": "Grouped by shell and plane from TLE"
  },
  {
    "OBJECT_NAME": "STARLINK-31123",
    "OBJECT_ID": "24011L",
    "EPOCH": "2025-11-10T10:22:11.389728",
    "MEAN_MOTION": 15.30199145,
    "ECCENTRICITY": 0.000121,
    "INCLINATION": 53.1597,
    "RA_OF_ASC_NODE": 207.4563,
    "ARG_OF_PERICENTER": 113.3723,
    "MEAN_ANOMALY": 246.7405,
    "EPHEMERIS_TYPE": 0,
    "CLASSIFICATION_TYPE": "U",
    "NORAD_CAT_ID": 58775,
    "ELEMENT_SET_NO": 999,
    "REV_AT_EPOCH": 10201,
    "BSTAR": 6.1257e-05,
    "MEAN_MOTION_DOT": 1.455e-05,
    "MEAN_MOTION_DDOT": 0.0,
    "TLE_LINE1": "1 58775U 24011L   25314.43207627  .00001455  00000+0  61257-4 0  9995",
    "TLE_LINE2": "2 58775  53.1597 207.4563 0001210 113.3723 246.7405 15.30199145102015",
    "COMMENT": "Grouped by shell and plane from TLE"
  },
  {
    "OBJECT_NAME": "STARLINK-31117",
    "OBJECT_ID": "24011M",
    "EPOCH": "2025-11-11T01:18:49.584384",
    "MEAN_MOTION": 15.3019105,
    "ECCENTRICITY": 0.000146,
    "INCLINATION": 53.1622,
    "RA_OF_ASC_NODE": 204.9369,
    "ARG_OF_PERICENTER": 91.5742,
    "MEAN_ANOMALY": 268.5426,
    "EPHEMERIS_TYPE": 0,
    "CLASSIFICATION_TYPE": "U",
    "NORAD_CAT_ID": 58776,
    "ELEMENT_SET_NO": 999,
    "REV_AT_EPOCH": 10210,
    "BSTAR": 0.00013797,
    "MEAN_MOTION_DOT": 3.728e-05,
    "MEAN_MOTION_DDOT": 0.0,
    "TLE_LINE1": "1 58776U 24011M   25315.05474056  .00003728  00000+0  13797-3 0  9997",
    "TLE_LINE2": "2 58776  53.1622 204.9369 0001460  91.5742 268.5426 15.30191050102108",
    "COMMENT": "Grouped by shell and plane from TLE"
  },
  {
    "OBJECT_NAME": "STARLINK-31120",
    "OBJECT_ID": "24011P",
    "EPOCH": "2025-11-11T01:37:02.870976",
    "MEAN_MOTION": 15.30216381,
    "ECCENTRICITY": 0.0001221,
    "INCLINATION": 53.1573,
    "RA_OF_ASC_NODE": 205.0132,
    "ARG_OF_PERICENTER": 105.0879,
    "MEAN_ANOMALY": 255.0257,
    "EPHEMERIS_TYPE": 0,
    "CLASSIFICATION_TYPE": "U",
    "NORAD_CAT_ID": 58778,
    "ELEMENT_SET_NO": 999,
    "REV_AT_EPOCH": 10210,
    "BSTAR": 0.00077313,
    "MEAN_MOTION_DOT": 0.0002262,
    "MEAN_MOTION_DDOT": 0.0,
    "TLE_LINE1": "1 58778U 24011P   25315.06739434  .00022620  00000+0  77313-3 0  9990",
    "TLE_LINE2": "2 58778  53.1573 205.0132 0001221 105.0879 255.0257 15.30216381102100",
    "COMMENT": "Grouped by shell and plane from TLE"
  },
  {
    "OBJECT_NAME": "STARLINK-31142",
    "OBJECT_ID": "24011Q",
    "EPOCH": "2025-11-10T23:41:43.827648",
    "MEAN_MOTION": 15.30195423,
    "ECCENTRICITY": 0.0001737,
    "INCLINATION": 53.1616,
    "RA_OF_ASC_NODE": 205.2225,
    "ARG_OF_PERICENTER": 62.5961,
    "MEAN_ANOMALY": 297.5216,
    "EPHEMERIS_TYPE": 0,
    "CLASSIFICATION_TYPE": "U",
    "NORAD_CAT_ID": 58779,
    "ELEMENT_SET_NO": 999,
    "REV_AT_EPOCH": 10209,
    "BSTAR": 0.0,
    "MEAN_MOTION_DOT": -4.84e-06,
    "MEAN_MOTION_DDOT": 0.0,
    "TLE_LINE1": "1 58779U 24011Q   25314.98731282 -.00000484  00000+0 -41940-5 0  9999",
    "TLE_LINE2": "2 58779  53.1616 205.2225 0001737  62.5961 297.5216 15.30195423102092",
    "COMMENT": "Grouped by shell and plane from TLE"
  },
  {
    "OBJECT_NAME": "STARLINK-31099",
    "OBJECT_ID": "24011S",
    "EPOCH": "2025-11-11T02:45:16.440768",
    "MEAN_MOTION": 15.30191838,
    "ECCENTRICITY": 0.000141,
    "INCLINATION": 53.1573,
    "RA_OF_ASC_NODE": 204.5974,
    "ARG_OF_PERICENTER": 81.9818,
    "MEAN_ANOMALY": 278.1343,
    "EPHEMERIS_TYPE": 0,
    "CLASSIFICATION_TYPE": "U",
    "NORAD_CAT_ID": 58781,
    "ELEMENT_SET_NO": 999,
    "REV_AT_EPOCH": 10211,
    "BSTAR": 0.0,
    "MEAN_MOTION_DOT": -5.64e-06,
    "MEAN_MOTION_DDOT": 0.0,
    "TLE_LINE1": "1 58781U 24011S   25315.11477362 -.00000564  00000+0 -69134-5 0  9998",
    "TLE_LINE2": "2 58781  53.1573 204.5974 0001410  81.9818 278.1343 15.30191838102119",
    "COMMENT": "Grouped by shell and plane from TLE"
  },
  {
    "OBJECT_NAME": "STARLINK-31039",
    "OBJECT_ID": "24011V",
    "EPOCH": "2025-11-11T02:36:09.348192",
    "MEAN_MOTION": 15.30195883,
    "ECCENTRICITY": 0.0001409,
    "INCLINATION": 53.1587,
    "RA_OF_ASC_NODE": 204.5577,
    "ARG_OF_PERICENTER": 60.911,
    "MEAN_ANOMALY": 299.2032,
    "EPHEMERIS_TYPE": 0,
    "CLASSIFICATION_TYPE": "U",
    "NORAD_CAT_ID": 58784,
    "ELEMENT_SET_NO": 999,
    "REV_AT_EPOCH": 10211,
    "BSTAR": 6.6722e-05,
    "MEAN_MOTION_DOT": 1.617e-05,
    "MEAN_MOTION_DDOT": 0.0,
    "TLE_LINE1": "1 58784U 24011V   25315.10844153  .00001617  00000+0  66722-4 0  9993",
    "TLE_LINE2": "2 58784  53.1587 204.5577 0001409  60.9110 299.2032 15.30195883102119",
    "COMMENT": "Grouped by shell and plane from TLE"
  },
  {
    "OBJECT_NAME": "STARLINK-31024",
    "OBJECT_ID": "24011X",
    "EPOCH": "2025-11-11T02:42:59.508000",
    "MEAN_MOTION": 15.3020026,
    "ECCENTRICITY": 0.0001221,
    "INCLINATION": 53.1595,
    "RA_OF_ASC_NODE": 202.4782,
    "ARG_OF_PERICENTER": 68.7879,
    "MEAN_ANOMALY": 291.3252,
    "EPHEMERIS_TYPE": 0,
    "CLASSIFICATION_TYPE": "U",
    "NORAD_CAT_ID": 58786,
    "ELEMENT_SET_NO": 999,
    "REV_AT_EPOCH": 10214,
    "BSTAR": 3.2272000000000005e-05,
    "MEAN_MOTION_DOT": 5.97e-06,
    "MEAN_MOTION_DDOT": 0.0,
    "TLE_LINE1": "1 58786U 24011X   25315.11318875  .00000597  00000+0  32272-4 0  9992",
    "TLE_LINE2": "2 58786  53.1595 202.4782 0001221  68.7879 291.3252 15.30200260102141",
    "COMMENT": "Grouped by shell and plane from TLE"
  },
  {
    "OBJECT_NAME": "STARLINK-31238",
    "OBJECT_ID": "24019A",
    "EPOCH": "2025-11-10T17:50:09.281472",
    "MEAN_MOTION": 15.27577101,
    "ECCENTRICITY": 0.0001206,
    "INCLINATION": 43.0065,
    "RA_OF_ASC_NODE": 200.4434,
    "ARG_OF_PERICENTER": 268.1491,
    "MEAN_ANOMALY": 91.9222,
    "EPHEMERIS_TYPE": 0,
    "CLASSIFICATION_TYPE": "U",
    "NORAD_CAT_ID": 58853,
    "ELEMENT_SET_NO": 999,
    "REV_AT_EPOCH": 10089,
    "BSTAR": 0.00014379,
    "MEAN_MOTION_DOT": 3.696e-05,
    "MEAN_MOTION_DDOT": 0.0,
    "TLE_LINE1": "1 58853U 24019A   25314.74316298  .00003696  00000+0  14379-3 0  9990",
    "TLE_LINE2": "2 58853  43.0065 200.4434 0001206 268.1491  91.9222 15.27577101100895",
    "COMMENT": "Grouped by shell and plane from TLE"
  }
]